[{"OBJECT_NAME":"STARLINK-31794","OBJECT_ID":"2024-093X","EPOCH":"2026-03-09T10:31:44.210496","MEAN_MOTION":15.27609693,"ECCENTRICITY":0.00017045,"INCLINATION":43.0046,"RA_OF_ASC_NODE":210.6044,"ARG_OF_PERICENTER":290.9805,"MEAN_ANOMALY":69.0864,"EPHEMERIS_TYPE":0,"CLASSIFICATION_TYPE":"U","NORAD_CAT_ID":59803,"ELEMENT_SET_NO":999,"REV_AT_EPOCH":10272,"BSTAR":-0.00046972813,"MEAN_MOTION_DOT":-0.00013177,"MEAN_MOTION_DDOT":0},{"OBJECT_NAME":"TEVEL2-2","OBJECT_ID":"2025-052K","EPOCH":"2026-03-09T15:33:48.895776","MEAN_MOTION":15.30343745,"ECCENTRICITY":0.0004693,"INCLINATION":97.3987,"RA_OF_ASC_NODE":324.77,"ARG_OF_PERICENTER":105.793,"MEAN_ANOMALY":254.3828,"EPHEMERIS_TYPE":0,"CLASSIFICATION_TYPE":"U","NORAD_CAT_ID":63219,"ELEMENT_SET_NO":999,"REV_AT_EPOCH":5485,"BSTAR":0.00069428,"MEAN_MOTION_DOT":0.00020339,"MEAN_MOTION_DDOT":0}]
